start=new Date('2022-06-29T00:00:00.000Z').valueOf();
sats=[{"EPHEMERIS_TYPE":"0","MEAN_ELEMENT_THEORY":"SGP4","MEAN_MOTION":"15.08833964","PERIAPSIS":"537.478","REF_FRAME":"TEME","EPOCH":"2022-06-28T16:35:38.743296","ECCENTRICITY":"0.00033040","FILE":"3504942","OBJECT_ID":"2021-104AC","CLASSIFICATION_TYPE":"U","CENTER_NAME":"EARTH","MEAN_MOTION_DDOT":"0.0000000000000","ARG_OF_PERICENTER":"45.5119","MEAN_MOTION_DOT":"0.00000683","SITE":"AFETR","RA_OF_ASC_NODE":"169.5077","TIME_SYSTEM":"UTC","ELEMENT_SET_NO":"999","NORAD_CAT_ID":"49434","BSTAR":"0.00006105400000","COUNTRY_CODE":"US","DECAY_DATE":null,"PERIOD":"95.438","REV_AT_EPOCH":"3591","APOAPSIS":"542.050","INCLINATION":"53.2166","LAUNCH_DATE":"2021-11-13","TLE_LINE1":"1 49434U 21104AC  22179.69142064  .00000683  00000-0  61054-4 0  9992","OBJECT_TYPE":"PAYLOAD","GP_ID":"207061011","SEMIMAJOR_AXIS":"6917.899","TLE_LINE2":"2 49434  53.2166 169.5077 0003304  45.5119 314.6142 15.08833964 35915","RCS_SIZE":"LARGE","OBJECT_NAME":"STARLINK-3134","MEAN_ANOMALY":"314.6142"},{"ELEMENT_SET_NO":"999","TIME_SYSTEM":"UTC","MEAN_MOTION_DOT":"-0.00000117","RA_OF_ASC_NODE":"151.1122","SITE":"AFETR","ARG_OF_PERICENTER":"51.4042","CLASSIFICATION_TYPE":"U","CENTER_NAME":"EARTH","MEAN_MOTION_DDOT":"0.0000000000000","FILE":"3504789","OBJECT_ID":"2021-104AD","ECCENTRICITY":"0.00026780","EPOCH":"2022-06-28T08:00:20.345184","PERIAPSIS":"537.867","REF_FRAME":"TEME","MEAN_MOTION":"15.08848275","MEAN_ELEMENT_THEORY":"SGP4","EPHEMERIS_TYPE":"0","MEAN_ANOMALY":"308.7189","RCS_SIZE":"LARGE","OBJECT_NAME":"STARLINK-3117","GP_ID":"207032399","SEMIMAJOR_AXIS":"6917.855","TLE_LINE2":"2 49435  53.2157 151.1122 0002678  51.4042 308.7189 15.08848275 35059","LAUNCH_DATE":"2021-11-13","TLE_LINE1":"1 49435U 21104AD  22179.33356881 -.00000117  00000-0  10749-4 0  9996","OBJECT_TYPE":"PAYLOAD","INCLINATION":"53.2157","REV_AT_EPOCH":"3505","APOAPSIS":"541.573","PERIOD":"95.437","COUNTRY_CODE":"US","DECAY_DATE":null,"NORAD_CAT_ID":"49435","BSTAR":"0.00001074900000"},{"EPOCH":"2022-06-28T07:58:57.858240","ECCENTRICITY":"0.00018390","EPHEMERIS_TYPE":"0","MEAN_MOTION":"15.08840688","MEAN_ELEMENT_THEORY":"SGP4","REF_FRAME":"TEME","PERIAPSIS":"538.471","MEAN_MOTION_DOT":"-0.00000397","SITE":"AFETR","RA_OF_ASC_NODE":"151.1014","TIME_SYSTEM":"UTC","ELEMENT_SET_NO":"999","FILE":"3504789","OBJECT_ID":"2021-104AE","CENTER_NAME":"EARTH","CLASSIFICATION_TYPE":"U","MEAN_MOTION_DDOT":"0.0000000000000","ARG_OF_PERICENTER":"52.6467","REV_AT_EPOCH":"3505","APOAPSIS":"541.015","NORAD_CAT_ID":"49436","BSTAR":"-0.00000682830000","COUNTRY_CODE":"US","DECAY_DATE":null,"PERIOD":"95.438","LAUNCH_DATE":"2021-11-13","OBJECT_TYPE":"PAYLOAD","TLE_LINE1":"1 49436U 21104AE  22179.33261410 -.00000397  00000-0 -68283-5 0  9998","GP_ID":"207033650","SEMIMAJOR_AXIS":"6917.878","TLE_LINE2":"2 49436  53.2160 151.1014 0001839  52.6467 307.4692 15.08840688 35051","RCS_SIZE":"LARGE","OBJECT_NAME":"STARLINK-3049","MEAN_ANOMALY":"307.4692","INCLINATION":"53.2160"},{"INCLINATION":"53.2178","OBJECT_TYPE":"PAYLOAD","TLE_LINE1":"1 49437U 21104AF  22179.72269571 -.00000476  00000-0 -11771-4 0  9995","LAUNCH_DATE":"2021-11-13","TLE_LINE2":"2 49437  53.2178 149.3714 0003008  45.8246 314.2993 15.08842651 35115","SEMIMAJOR_AXIS":"6917.872","GP_ID":"207060764","OBJECT_NAME":"STARLINK-3130","RCS_SIZE":"LARGE","MEAN_ANOMALY":"314.2993","BSTAR":"-0.00001177100000","NORAD_CAT_ID":"49437","DECAY_DATE":null,"COUNTRY_CODE":"US","PERIOD":"95.437","APOAPSIS":"541.818","REV_AT_EPOCH":"3511","OBJECT_ID":"2021-104AF","FILE":"3504942","MEAN_MOTION_DDOT":"0.0000000000000","CENTER_NAME":"EARTH","CLASSIFICATION_TYPE":"U","ARG_OF_PERICENTER":"45.8246","SITE":"AFETR","RA_OF_ASC_NODE":"149.3714","MEAN_MOTION_DOT":"-0.00000476","TIME_SYSTEM":"UTC","ELEMENT_SET_NO":"999","EPHEMERIS_TYPE":"0","MEAN_ELEMENT_THEORY":"SGP4","MEAN_MOTION":"15.08842651","PERIAPSIS":"537.656","REF_FRAME":"TEME","EPOCH":"2022-06-28T17:20:40.909344","ECCENTRICITY":"0.00030080"},{"TIME_SYSTEM":"UTC","ELEMENT_SET_NO":"999","RA_OF_ASC_NODE":"149.6796","SITE":"AFETR","MEAN_MOTION_DOT":"-0.00000960","ARG_OF_PERICENTER":"48.9656","OBJECT_ID":"2021-104AG","FILE":"3504942","MEAN_MOTION_DDOT":"0.0000000000000","CENTER_NAME":"EARTH","CLASSIFICATION_TYPE":"U","EPOCH":"2022-06-28T15:40:00.491808","ECCENTRICITY":"0.00032280","REF_FRAME":"TEME","PERIAPSIS":"537.551","EPHEMERIS_TYPE":"0","MEAN_ELEMENT_THEORY":"SGP4","MEAN_MOTION":"15.08827264","OBJECT_NAME":"STARLINK-3044","RCS_SIZE":"LARGE","MEAN_ANOMALY":"311.1615","OBJECT_TYPE":"PAYLOAD","TLE_LINE1":"1 49438U 21104AG  22179.65278347 -.00000960  00000-0 -42189-4 0  9994","LAUNCH_DATE":"2021-11-13","TLE_LINE2":"2 49438  53.2161 149.6796 0003228  48.9656 311.1615 15.08827264 35103","SEMIMAJOR_AXIS":"6917.919","GP_ID":"207060511","INCLINATION":"53.2161","APOAPSIS":"542.017","REV_AT_EPOCH":"3510","PERIOD":"95.438","BSTAR":"-0.00004218900000","NORAD_CAT_ID":"49438","DECAY_DATE":null,"COUNTRY_CODE":"US"},{"EPHEMERIS_TYPE":"0","MEAN_ELEMENT_THEORY":"SGP4","MEAN_MOTION":"15.08833731","PERIAPSIS":"537.427","REF_FRAME":"TEME","EPOCH":"2022-06-28T15:13:30.911520","ECCENTRICITY":"0.00033790","FILE":"3504942","OBJECT_ID":"2021-104AH","CENTER_NAME":"EARTH","CLASSIFICATION_TYPE":"U","MEAN_MOTION_DDOT":"0.0000000000000","ARG_OF_PERICENTER":"48.6430","MEAN_MOTION_DOT":"-0.00000671","RA_OF_ASC_NODE":"149.7606","SITE":"AFETR","TIME_SYSTEM":"UTC","ELEMENT_SET_NO":"999","NORAD_CAT_ID":"49439","BSTAR":"-0.00002400300000","COUNTRY_CODE":"US","DECAY_DATE":null,"PERIOD":"95.438","REV_AT_EPOCH":"3510","APOAPSIS":"542.102","INCLINATION":"53.2190","LAUNCH_DATE":"2021-11-13","OBJECT_TYPE":"PAYLOAD","TLE_LINE1":"1 49439U 21104AH  22179.63438555 -.00000671  00000-0 -24003-4 0  9996","GP_ID":"207061264","TLE_LINE2":"2 49439  53.2190 149.7606 0003379  48.6430 311.4852 15.08833731 35103","SEMIMAJOR_AXIS":"6917.900","RCS_SIZE":"LARGE","OBJECT_NAME":"STARLINK-3108","MEAN_ANOMALY":"311.4852"},{"EPOCH":"2022-06-28T21:56:14.468640","ECCENTRICITY":"0.00033570","REF_FRAME":"TEME","PERIAPSIS":"537.421","EPHEMERIS_TYPE":"0","MEAN_ELEMENT_THEORY":"SGP4","MEAN_MOTION":"15.08840520","TIME_SYSTEM":"UTC","ELEMENT_SET_NO":"999","MEAN_MOTION_DOT":"-0.00000625","RA_OF_ASC_NODE":"148.5119","SITE":"AFETR","ARG_OF_PERICENTER":"48.0496","FILE":"3504942","OBJECT_ID":"2021-104AJ","CENTER_NAME":"EARTH","CLASSIFICATION_TYPE":"U","MEAN_MOTION_DDOT":"0.0000000000000","REV_AT_EPOCH":"3514","APOAPSIS":"542.066","PERIOD":"95.438","NORAD_CAT_ID":"49440","BSTAR":"-0.00002112100000","COUNTRY_CODE":"US","DECAY_DATE":null,"RCS_SIZE":"LARGE","OBJECT_NAME":"STARLINK-3105","MEAN_ANOMALY":"312.0782","LAUNCH_DATE":"2021-11-13","OBJECT_TYPE":"PAYLOAD","TLE_LINE1":"1 49440U 21104AJ  22179.91405635 -.00000625  00000-0 -21121-4 0  9999","GP_ID":"207062008","SEMIMAJOR_AXIS":"6917.879","TLE_LINE2":"2 49440  53.2176 148.5119 0003357  48.0496 312.0782 15.08840520 35144","INCLINATION":"53.2176"},{"MEAN_MOTION":"15.08840508","MEAN_ELEMENT_THEORY":"SGP4","EPHEMERIS_TYPE":"0","PERIAPSIS":"537.628","REF_FRAME":"TEME","ECCENTRICITY":"0.00030580","EPOCH":"2022-06-28T07:11:16.272960","MEAN_MOTION_DDOT":"0.0000000000000","CLASSIFICATION_TYPE":"U","CENTER_NAME":"EARTH","OBJECT_ID":"2021-104AK","FILE":"3504789","ARG_OF_PERICENTER":"47.5255","SITE":"AFETR","RA_OF_ASC_NODE":"151.2585","MEAN_MOTION_DOT":"-0.00000412","ELEMENT_SET_NO":"999","TIME_SYSTEM":"UTC","DECAY_DATE":null,"COUNTRY_CODE":"US","BSTAR":"-0.00000773670000","NORAD_CAT_ID":"49441","PERIOD":"95.438","APOAPSIS":"541.859","REV_AT_EPOCH":"3505","INCLINATION":"53.2178","SEMIMAJOR_AXIS":"6917.879","TLE_LINE2":"2 49441  53.2178 151.2585 0003058  47.5255 312.5996 15.08840508 35058","GP_ID":"207033901","TLE_LINE1":"1 49441U 21104AK  22179.29949390 -.00000412  00000-0 -77367-5 0  9990","OBJECT_TYPE":"PAYLOAD","LAUNCH_DATE":"2021-11-13","MEAN_ANOMALY":"312.5996","OBJECT_NAME":"STARLINK-3128","RCS_SIZE":"LARGE"},{"PERIOD":"95.437","NORAD_CAT_ID":"49442","BSTAR":"-0.00001260400000","COUNTRY_CODE":"US","DECAY_DATE":null,"REV_AT_EPOCH":"3514","APOAPSIS":"541.946","INCLINATION":"53.2158","RCS_SIZE":"LARGE","OBJECT_NAME":"STARLINK-3098","MEAN_ANOMALY":"310.7084","LAUNCH_DATE":"2021-11-13","OBJECT_TYPE":"PAYLOAD","TLE_LINE1":"1 49442U 21104AL  22179.91037214 -.00000489  00000-0 -12604-4 0  9999","GP_ID":"207061012","SEMIMAJOR_AXIS":"6917.871","TLE_LINE2":"2 49442  53.2158 148.5225 0003195  49.4186 310.7084 15.08843051 35147","REF_FRAME":"TEME","PERIAPSIS":"537.526","EPHEMERIS_TYPE":"0","MEAN_MOTION":"15.08843051","MEAN_ELEMENT_THEORY":"SGP4","EPOCH":"2022-06-28T21:50:56.152896","ECCENTRICITY":"0.00031950","ARG_OF_PERICENTER":"49.4186","FILE":"3504942","OBJECT_ID":"2021-104AL","CLASSIFICATION_TYPE":"U","CENTER_NAME":"EARTH","MEAN_MOTION_DDOT":"0.0000000000000","TIME_SYSTEM":"UTC","ELEMENT_SET_NO":"999","MEAN_MOTION_DOT":"-0.00000489","SITE":"AFETR","RA_OF_ASC_NODE":"148.5225"},{"ARG_OF_PERICENTER":"46.1421","OBJECT_ID":"2021-104AM","FILE":"3504942","MEAN_MOTION_DDOT":"0.0000000000000","CENTER_NAME":"EARTH","CLASSIFICATION_TYPE":"U","TIME_SYSTEM":"UTC","ELEMENT_SET_NO":"999","RA_OF_ASC_NODE":"149.7958","SITE":"AFETR","MEAN_MOTION_DOT":"-0.00000129","REF_FRAME":"TEME","PERIAPSIS":"537.513","EPHEMERIS_TYPE":"0","MEAN_ELEMENT_THEORY":"SGP4","MEAN_MOTION":"15.08840302","EPOCH":"2022-06-28T15:02:54.254112","ECCENTRICITY":"0.00032250","INCLINATION":"53.2189","OBJECT_NAME":"STARLINK-3136","RCS_SIZE":"LARGE","MEAN_ANOMALY":"313.9838","OBJECT_TYPE":"PAYLOAD","TLE_LINE1":"1 49443U 21104AM  22179.62701683 -.00000129  00000-0  10035-4 0  9992","LAUNCH_DATE":"2021-11-13","TLE_LINE2":"2 49443  53.2189 149.7958 0003225  46.1421 313.9838 15.08840302 35102","SEMIMAJOR_AXIS":"6917.879","GP_ID":"207061765","PERIOD":"95.438","BSTAR":"0.00001003500000","NORAD_CAT_ID":"49443","DECAY_DATE":null,"COUNTRY_CODE":"US","APOAPSIS":"541.975","REV_AT_EPOCH":"3510"}];
